OBJECT_NAME,OBJECT_ID,EPOCH,MEAN_MOTION,ECCENTRICITY,INCLINATION,RA_OF_ASC_NODE,ARG_OF_PERICENTER,MEAN_ANOMALY,EPHEMERIS_TYPE,CLASSIFICATION_TYPE,NORAD_CAT_ID,ELEMENT_SET_NO,REV_AT_EPOCH,BSTAR,MEAN_MOTION_DOT,MEAN_MOTION_DDOT
INTELSAT 21 (IS-21),2012-045A,2026-06-10T06:10:19.740288,1.00267022,.0001677,0.0227,283.3658,177.3275,192.4944,0,U,38749,999,5045,0,-.267E-5,0
INTELSAT 23 (IS-23),2012-057A,2026-06-10T11:19:40.121760,1.00268879,.000007,0.0165,301.3685,149.1793,285.2116,0,U,38867,999,4988,0,-.267E-5,0
FM-6,2013-058A,2026-06-08T15:06:37.024416,1.00255605,.00027713,0.0107,82.6412,69.5183,215.1325,0,U,39360,999,4598,0,.3E-7,0
INTELSAT 30 (IS-30),2014-062A,2026-06-10T00:51:42.732864,1.00267059,.00008212,0.0228,41.0330,352.5032,142.6782,0,U,40271,999,672,0,-.132E-5,0
DIRECTV 14,2014-078B,2026-06-09T01:17:09.208320,1.00271044,.00002356,0.0091,1.3268,206.1301,330.0282,0,U,40333,999,4196,0,-.109E-5,0
DIRECTV 15,2015-026A,2026-06-10T12:48:12.289248,1.00269381,.00006202,0.0040,69.2590,215.6549,63.1643,0,U,40663,999,4039,0,-.85E-6,0
SKY MEXICO-1,2015-026B,2026-06-10T11:12:18.328320,1.00270836,.00020907,0.0152,313.3590,144.8005,249.9482,0,U,40664,999,4038,0,-.217E-5,0
INTELSAT 34 (IS-34),2015-039A,2026-06-10T07:53:37.626144,1.00270209,.00003578,0.0112,323.8665,11.9971,345.7535,0,U,40874,999,3956,0,-.268E-5,0
INTELSAT 31 (IS-31),2016-035A,2026-06-10T12:50:12.096672,1.00269670,.00010055,0.0159,267.2572,335.2563,113.8830,0,U,41581,999,3661,0,-.133E-5,0
INTELSAT 36 (IS-36),2016-053A,2026-06-10T13:37:02.610912,1.00270452,.00018541,0.0119,0.9491,332.4947,198.2350,0,U,41747,999,3589,0,-.7E-7,0
INTELSAT 32E (IS-32E),2017-007B,2026-06-09T02:04:35.551776,1.00274840,.0000672,0.0023,348.0424,336.8096,280.6015,0,U,41945,999,3414,0,-.252E-5,0
INTELSAT 35E (IS-35E),2017-041A,2026-06-10T11:25:02.107776,1.00271241,.00016632,0.0045,72.9661,5.0881,317.5690,0,U,42818,999,3274,0,-.22E-5,0
INTELSAT 37E (IS-37E),2017-059A,2026-06-10T07:36:38.848320,1.00270044,.0002381,0.0043,78.2474,24.2615,252.3325,0,U,42950,999,3199,0,-.123E-5,0
AZERSPACE 2 (IS-38),2018-074A,2026-06-10T13:30:18.257184,1.00271783,.00012369,0.0027,66.4415,15.4806,64.6887,0,U,43632,999,2838,0,.154E-5,0
HORIZONS-3E,2018-074B,2026-06-09T03:52:26.934240,1.00270197,.0000957,0.0093,158.1609,124.5481,201.9406,0,U,43633,999,2826,0,-.14E-6,0
AT&T T-16,2019-034A,2026-06-09T16:16:49.046880,1.00268740,.00006409,0.0247,68.1337,190.5571,142.7032,0,U,44333,999,2555,0,-.98E-6,0
INTELSAT 39 (IS-39),2019-049B,2026-06-10T14:54:40.305312,1.00270455,.00009278,0.0197,325.9148,346.0260,232.6606,0,U,44476,999,2506,0,.51E-6,0
GALAXY 30 (G-30),2020-056C,2026-06-10T12:41:50.398656,1.00273494,.00020952,0.0198,326.7998,108.4349,249.1236,0,U,46114,999,2122,0,.54E-6,0
GALAXY 33 (G-33),2022-128A,2026-06-10T12:39:35.613792,1.00271671,.00017832,0.0098,321.0796,125.2269,229.4963,0,U,54026,999,1367,0,.96E-6,0
GALAXY 34 (G-34),2022-128B,2026-06-08T23:02:06.902304,1.00274719,.00018617,0.0154,329.7482,136.9348,7.2031,0,U,54027,999,1383,0,.75E-6,0
GALAXY 31 (G-31),2022-153A,2026-06-10T12:42:57.790656,1.00272160,.00012165,0.0157,293.2466,145.3680,250.0248,0,U,54243,999,706,0,.31E-6,0
GALAXY 32 (G-32),2022-153B,2026-06-09T07:46:18.681312,1.00270919,.00021646,0.0091,331.9838,65.0548,246.2445,0,U,54244,999,1306,0,-.157E-5,0
GALAXY 35 (G-35),2022-170A,2026-06-09T11:00:24.946848,1.00271145,.00020317,0.0337,106.4075,335.1959,248.2408,0,U,54741,999,1281,0,-.145E-5,0
GALAXY 36 (G-36),2022-170B,2026-06-10T12:52:04.418400,1.00270422,.00025909,0.0087,45.7232,38.5791,278.6131,0,U,54742,999,1270,0,-.168E-5,0
GALAXY 37 (G-37),2023-112A,2026-06-10T12:41:12.958080,1.00272044,.00018773,0.0187,358.7648,81.5866,241.8482,0,U,57493,999,1047,0,.65E-6,0
