INTELSAT 21 (IS-21)     
1 38749U 12045A   26161.25717292 -.00000267  00000+0  00000+0 0  9998
2 38749   0.0227 283.3658 0001677 177.3275 192.4944  1.00267022 50459
INTELSAT 23 (IS-23)     
1 38867U 12057A   26161.47199215 -.00000267  00000+0  00000+0 0  9995
2 38867   0.0165 301.3685 0000070 149.1793 285.2116  1.00268879 49888
FM-6                    
1 39360U 13058A   26159.62959519  .00000003  00000+0  00000+0 0  9998
2 39360   0.0107  82.6412 0002771  69.5183 215.1325  1.00255605 45982
INTELSAT 30 (IS-30)     
1 40271U 14062A   26161.03591126 -.00000132  00000+0  00000+0 0  9995
2 40271   0.0228  41.0330 0000821 352.5032 142.6782  1.00267059  6725
DIRECTV 14              
1 40333U 14078B   26160.05357880 -.00000109  00000+0  00000+0 0  9993
2 40333   0.0091   1.3268 0000235 206.1301 330.0282  1.00271044 41965
DIRECTV 15              
1 40663U 15026A   26161.53347557 -.00000085  00000+0  00000+0 0  9990
2 40663   0.0040  69.2590 0000620 215.6549  63.1643  1.00269381 40395
SKY MEXICO-1            
1 40664U 15026B   26161.46687880 -.00000217  00000+0  00000+0 0  9996
2 40664   0.0152 313.3590 0002090 144.8005 249.9482  1.00270836 40387
INTELSAT 34 (IS-34)     
1 40874U 15039A   26161.32890771 -.00000268  00000+0  00000+0 0  9999
2 40874   0.0112 323.8665 0000357  11.9971 345.7535  1.00270209 39561
INTELSAT 31 (IS-31)     
1 41581U 16035A   26161.53486223 -.00000133  00000+0  00000+0 0  9999
2 41581   0.0159 267.2572 0001005 335.2563 113.8830  1.00269670 36611
INTELSAT 36 (IS-36)     
1 41747U 16053A   26161.56739133 -.00000007  00000+0  00000+0 0  9997
2 41747   0.0119   0.9491 0001854 332.4947 198.2350  1.00270452 35893
INTELSAT 32E (IS-32E)   
1 41945U 17007B   26160.08652259 -.00000252  00000+0  00000+0 0  9998
2 41945   0.0023 348.0424 0000672 336.8096 280.6015  1.00274840 34145
INTELSAT 35E (IS-35E)   
1 42818U 17041A   26161.47571884 -.00000220  00000+0  00000+0 0  9999
2 42818   0.0045  72.9661 0001663   5.0881 317.5690  1.00271241 32748
INTELSAT 37E (IS-37E)   
1 42950U 17059A   26161.31711630 -.00000123  00000+0  00000+0 0  9995
2 42950   0.0043  78.2474 0002381  24.2615 252.3325  1.00270044 31997
AZERSPACE 2 (IS-38)     
1 43632U 18074A   26161.56271131  .00000154  00000+0  00000+0 0  9998
2 43632   0.0027  66.4415 0001236  15.4806  64.6887  1.00271783 28380
HORIZONS-3E             
1 43633U 18074B   26160.16142285 -.00000014  00000+0  00000+0 0  9997
2 43633   0.0093 158.1609 0000957 124.5481 201.9406  1.00270197 28266
AT&T T-16               
1 44333U 19034A   26160.67834545 -.00000098  00000+0  00000+0 0  9997
2 44333   0.0247  68.1337 0000640 190.5571 142.7032  1.00268740 25552
INTELSAT 39 (IS-39)     
1 44476U 19049B   26161.62129983  .00000051  00000+0  00000+0 0  9998
2 44476   0.0197 325.9148 0000927 346.0260 232.6606  1.00270455 25067
GALAXY 30 (G-30)        
1 46114U 20056C   26161.52905554  .00000054  00000+0  00000+0 0  9997
2 46114   0.0198 326.7998 0002095 108.4349 249.1236  1.00273494 21229
GALAXY 33 (G-33)        
1 54026U 22128A   26161.52749553  .00000096  00000+0  00000+0 0  9991
2 54026   0.0098 321.0796 0001783 125.2269 229.4963  1.00271671 13677
GALAXY 34 (G-34)        
1 54027U 22128B   26159.95980211  .00000075  00000+0  00000+0 0  9991
2 54027   0.0154 329.7482 0001861 136.9348   7.2031  1.00274719 13834
GALAXY 31 (G-31)        
1 54243U 22153A   26161.52983554  .00000031  00000+0  00000+0 0  9990
2 54243   0.0157 293.2466 0001216 145.3680 250.0248  1.00272160  7065
GALAXY 32 (G-32)        
1 54244U 22153B   26160.32382733 -.00000157  00000+0  00000+0 0  9990
2 54244   0.0091 331.9838 0002164  65.0548 246.2445  1.00270919 13063
GALAXY 35 (G-35)        
1 54741U 22170A   26160.45862207 -.00000145  00000+0  00000+0 0  9991
2 54741   0.0337 106.4075 0002031 335.1959 248.2408  1.00271145 12811
GALAXY 36 (G-36)        
1 54742U 22170B   26161.53616225 -.00000168  00000+0  00000+0 0  9994
2 54742   0.0087  45.7232 0002590  38.5791 278.6131  1.00270422 12707
GALAXY 37 (G-37)        
1 57493U 23112A   26161.52862220  .00000065  00000+0  00000+0 0  9999
2 57493   0.0187 358.7648 0001877  81.5866 241.8482  1.00272044 10475
